[{"OBJECT_NAME":"JILIN-1 GAOFEN 03D15","OBJECT_ID":"2022-019R","EPOCH":"2026-03-09T23:58:07.561632","MEAN_MOTION":15.6920844,"ECCENTRICITY":0.00039863,"INCLINATION":97.369,"RA_OF_ASC_NODE":160.232,"ARG_OF_PERICENTER":172.8619,"MEAN_ANOMALY":187.27,"EPHEMERIS_TYPE":0,"CLASSIFICATION_TYPE":"U","NORAD_CAT_ID":51839,"ELEMENT_SET_NO":999,"REV_AT_EPOCH":22441,"BSTAR":0.0010884373,"MEAN_MOTION_DOT":0.00128061,"MEAN_MOTION_DDOT":0},{"OBJECT_NAME":"STARLINK-11109 [DTC]","OBJECT_ID":"2024-133F","EPOCH":"2026-03-09T10:13:58.923552","MEAN_MOTION":15.69664331,"ECCENTRICITY":0.00012727,"INCLINATION":53.1589,"RA_OF_ASC_NODE":147.4537,"ARG_OF_PERICENTER":109.9145,"MEAN_ANOMALY":250.201,"EPHEMERIS_TYPE":0,"CLASSIFICATION_TYPE":"U","NORAD_CAT_ID":60306,"ELEMENT_SET_NO":999,"REV_AT_EPOCH":9369,"BSTAR":5.3983673e-5,"MEAN_MOTION_DOT":5.944e-5,"MEAN_MOTION_DDOT":0}]
